GLOBAL-31               
1 63027U 25033B   26197.29635215  .00005118  00000+0  14287-3 0  9998
2 63027  58.9963 198.5290 0012101  57.2233 303.0007 15.38323113 78807
GLOBAL-32               
1 64231U 25118B   26197.23454011  .00007801  00000+0  20586-3 0  9997
2 64231  58.9939  14.9770 0016607  61.7187 298.5563 15.39304720 62717
GLOBAL-33               
1 66554U 25267A   26196.43715393  .00006130  00000+0  17132-3 0  9993
2 66554  42.0180 251.8639 0007979  95.0002 265.1749 15.37230447 36396
GLOBAL-34               
1 68098U 26043A   26196.04369495  .00005816  00000+0  18566-3 0  9998
2 68098  42.0216  59.6488 0001710 141.7716 218.3243 15.33104306 20106
