{"fetched_at":"2026-07-16T17:46:28.173Z","source":"https://celestrak.org/NORAD/elements/gp.php?NAME=GLOBAL&FORMAT=JSON","constellation":"blacksky-gen3","records":[{"OBJECT_NAME":"GLOBAL-31","OBJECT_ID":"2025-033B","EPOCH":"2026-07-16T07:06:44.825760","CLASSIFICATION_TYPE":"U","MEAN_MOTION":15.38323113,"ECCENTRICITY":0.00121019,"INCLINATION":58.9963,"RA_OF_ASC_NODE":198.529,"ARG_OF_PERICENTER":57.2233,"MEAN_ANOMALY":303.0007,"EPHEMERIS_TYPE":0,"NORAD_CAT_ID":63027,"ELEMENT_SET_NO":999,"REV_AT_EPOCH":7880,"BSTAR":0.00014287348,"MEAN_MOTION_DOT":0.00005118,"MEAN_MOTION_DDOT":0},{"OBJECT_NAME":"GLOBAL-32","OBJECT_ID":"2025-118B","EPOCH":"2026-07-16T05:37:44.265504","CLASSIFICATION_TYPE":"U","MEAN_MOTION":15.3930472,"ECCENTRICITY":0.00166078,"INCLINATION":58.9939,"RA_OF_ASC_NODE":14.977,"ARG_OF_PERICENTER":61.7187,"MEAN_ANOMALY":298.5563,"EPHEMERIS_TYPE":0,"NORAD_CAT_ID":64231,"ELEMENT_SET_NO":999,"REV_AT_EPOCH":6271,"BSTAR":0.00020585948,"MEAN_MOTION_DOT":0.00007801,"MEAN_MOTION_DDOT":0},{"OBJECT_NAME":"GLOBAL-33","OBJECT_ID":"2025-267A","EPOCH":"2026-07-15T10:29:30.099552","CLASSIFICATION_TYPE":"U","MEAN_MOTION":15.37230447,"ECCENTRICITY":0.00079799,"INCLINATION":42.018,"RA_OF_ASC_NODE":251.8639,"ARG_OF_PERICENTER":95.0002,"MEAN_ANOMALY":265.1749,"EPHEMERIS_TYPE":0,"NORAD_CAT_ID":66554,"ELEMENT_SET_NO":999,"REV_AT_EPOCH":3639,"BSTAR":0.00017131951,"MEAN_MOTION_DOT":0.0000613,"MEAN_MOTION_DDOT":0},{"OBJECT_NAME":"GLOBAL-34","OBJECT_ID":"2026-043A","EPOCH":"2026-07-15T01:02:55.243680","CLASSIFICATION_TYPE":"U","MEAN_MOTION":15.33104306,"ECCENTRICITY":0.00017105,"INCLINATION":42.0216,"RA_OF_ASC_NODE":59.6488,"ARG_OF_PERICENTER":141.7716,"MEAN_ANOMALY":218.3243,"EPHEMERIS_TYPE":0,"NORAD_CAT_ID":68098,"ELEMENT_SET_NO":999,"REV_AT_EPOCH":2010,"BSTAR":0.00018566137,"MEAN_MOTION_DOT":0.00005816,"MEAN_MOTION_DDOT":0}]}
